[{"OBJECT_NAME":"NUSAT-50 (NANCY ROMAN)","OBJECT_ID":"2024-149AB","EPOCH":"2026-03-09T19:15:16.765632","MEAN_MOTION":15.29713355,"ECCENTRICITY":0.00025229,"INCLINATION":97.3817,"RA_OF_ASC_NODE":150.7693,"ARG_OF_PERICENTER":238.0469,"MEAN_ANOMALY":122.0527,"EPHEMERIS_TYPE":0,"CLASSIFICATION_TYPE":"U","NORAD_CAT_ID":60493,"ELEMENT_SET_NO":999,"REV_AT_EPOCH":8693,"BSTAR":0.0004225155,"MEAN_MOTION_DOT":0.00012094,"MEAN_MOTION_DDOT":0},{"OBJECT_NAME":"STARLINK-35871","OBJECT_ID":"2025-268K","EPOCH":"2026-03-09T02:36:21.306816","MEAN_MOTION":15.27576379,"ECCENTRICITY":0.00017407,"INCLINATION":43.0044,"RA_OF_ASC_NODE":350.1058,"ARG_OF_PERICENTER":286.9653,"MEAN_ANOMALY":73.1008,"EPHEMERIS_TYPE":0,"CLASSIFICATION_TYPE":"U","NORAD_CAT_ID":66566,"ELEMENT_SET_NO":999,"REV_AT_EPOCH":1787,"BSTAR":0.0015306626,"MEAN_MOTION_DOT":0.00042095,"MEAN_MOTION_DDOT":0}]
