NUSAT-50 (NANCY ROMAN)  
1 60493U 24149AB  26068.80227738  .00012094  00000+0  42252-3 0  9994
2 60493  97.3817 150.7693 0002523 238.0469 122.0527 15.29713355 86930
STARLINK-35871          
1 66566U 25268K   26068.10857994  .00042095  00000+0  15307-2 0  9994
2 66566  43.0044 350.1058 0001740 286.9653  73.1008 15.27576379 17873
